KUIPER-00061            
1 64521U 25134X   25332.33962020  .00004104  00000+0  56438-3 0  9990
2 64521  51.9024 316.2394 0005036 307.5447  52.5058 14.80134911 25120
KUIPER-00062            
1 64522U 25134Y   25332.34877938  .00005255  00000+0  63578-3 0  9996
2 64522  51.8985 321.6961 0006786 327.8926  32.1624 14.85043298 25064
KUIPER-00063            
1 64523U 25134Z   25332.25455438  .00005234  00000+0  71099-3 0  9998
2 64523  51.9029 326.5439 0003051 276.1855  83.8760 14.80176875 24985
KUIPER-00064            
1 64524U 25134AA  25332.83336806  .00035677  00000+0  46830-2 0  9998
2 64524  51.9034 321.4814 0008057  21.1051 128.0682 14.79924772  4360
KUIPER-00065            
1 64525U 25134AB  25332.38337383  .00005132  00000+0  75466-3 0  9991
2 64525  51.9026 328.5099 0010506 307.1463  52.8538 14.76792261 24955
KUIPER-00066            
1 64526U 25134AC  25332.30976389  .00021082  00000+0  97496-3 0  9998
2 64526  51.8871 302.6492 0001661  33.0536 327.0547 15.20103303 25323
KUIPER-00069            
1 64816U 25151A   25332.82444751  .00003949  00000+0  54727-3 0  9991
2 64816  51.9025   6.6349 0006380 311.4392  48.6021 14.79888677 21826
KUIPER-00070            
1 64817U 25151B   25332.42603496 -.00003661  00000+0 -45129-3 0  9990
2 64817  51.9014  33.3512 0009923 276.0177  83.9655 14.79886232 21423
