<?xml version="1.0" encoding="UTF-8"?>
<ndm xmlns:xsi="http://www.w3.org/2001/XMLSchema-instance" xsi:noNamespaceSchemaLocation="https://sanaregistry.org/r/ndmxml_unqualified/ndmxml-2.0.0-master-2.0.xsd">
<omm id="CCSDS_OMM_VERS" version="2.0">
<header><CREATION_DATE/><ORIGINATOR/></header><body><segment><metadata><OBJECT_NAME>KUIPER-00061</OBJECT_NAME><OBJECT_ID>2025-134X</OBJECT_ID><CENTER_NAME>EARTH</CENTER_NAME><REF_FRAME>TEME</REF_FRAME><TIME_SYSTEM>UTC</TIME_SYSTEM><MEAN_ELEMENT_THEORY>SGP4</MEAN_ELEMENT_THEORY></metadata><data><meanElements><EPOCH>2025-11-28T08:09:03.185280</EPOCH><MEAN_MOTION>14.80134911</MEAN_MOTION><ECCENTRICITY>.00050367</ECCENTRICITY><INCLINATION>51.9024</INCLINATION><RA_OF_ASC_NODE>316.2394</RA_OF_ASC_NODE><ARG_OF_PERICENTER>307.5447</ARG_OF_PERICENTER><MEAN_ANOMALY>52.5058</MEAN_ANOMALY></meanElements><tleParameters><EPHEMERIS_TYPE>0</EPHEMERIS_TYPE><CLASSIFICATION_TYPE>U</CLASSIFICATION_TYPE><NORAD_CAT_ID>64521</NORAD_CAT_ID><ELEMENT_SET_NO>999</ELEMENT_SET_NO><REV_AT_EPOCH>2512</REV_AT_EPOCH><BSTAR>.56437842E-3</BSTAR><MEAN_MOTION_DOT>.4104E-4</MEAN_MOTION_DOT><MEAN_MOTION_DDOT>0</MEAN_MOTION_DDOT></tleParameters></data></segment></body></omm>
<omm id="CCSDS_OMM_VERS" version="2.0">
<header><CREATION_DATE/><ORIGINATOR/></header><body><segment><metadata><OBJECT_NAME>KUIPER-00062</OBJECT_NAME><OBJECT_ID>2025-134Y</OBJECT_ID><CENTER_NAME>EARTH</CENTER_NAME><REF_FRAME>TEME</REF_FRAME><TIME_SYSTEM>UTC</TIME_SYSTEM><MEAN_ELEMENT_THEORY>SGP4</MEAN_ELEMENT_THEORY></metadata><data><meanElements><EPOCH>2025-11-28T08:22:14.538432</EPOCH><MEAN_MOTION>14.85043298</MEAN_MOTION><ECCENTRICITY>.00067861</ECCENTRICITY><INCLINATION>51.8985</INCLINATION><RA_OF_ASC_NODE>321.6961</RA_OF_ASC_NODE><ARG_OF_PERICENTER>327.8926</ARG_OF_PERICENTER><MEAN_ANOMALY>32.1624</MEAN_ANOMALY></meanElements><tleParameters><EPHEMERIS_TYPE>0</EPHEMERIS_TYPE><CLASSIFICATION_TYPE>U</CLASSIFICATION_TYPE><NORAD_CAT_ID>64522</NORAD_CAT_ID><ELEMENT_SET_NO>999</ELEMENT_SET_NO><REV_AT_EPOCH>2506</REV_AT_EPOCH><BSTAR>.63578192E-3</BSTAR><MEAN_MOTION_DOT>.5255E-4</MEAN_MOTION_DOT><MEAN_MOTION_DDOT>0</MEAN_MOTION_DDOT></tleParameters></data></segment></body></omm>
<omm id="CCSDS_OMM_VERS" version="2.0">
<header><CREATION_DATE/><ORIGINATOR/></header><body><segment><metadata><OBJECT_NAME>KUIPER-00063</OBJECT_NAME><OBJECT_ID>2025-134Z</OBJECT_ID><CENTER_NAME>EARTH</CENTER_NAME><REF_FRAME>TEME</REF_FRAME><TIME_SYSTEM>UTC</TIME_SYSTEM><MEAN_ELEMENT_THEORY>SGP4</MEAN_ELEMENT_THEORY></metadata><data><meanElements><EPOCH>2025-11-28T06:06:33.498432</EPOCH><MEAN_MOTION>14.80176875</MEAN_MOTION><ECCENTRICITY>.00030513</ECCENTRICITY><INCLINATION>51.9029</INCLINATION><RA_OF_ASC_NODE>326.5439</RA_OF_ASC_NODE><ARG_OF_PERICENTER>276.1855</ARG_OF_PERICENTER><MEAN_ANOMALY>83.8760</MEAN_ANOMALY></meanElements><tleParameters><EPHEMERIS_TYPE>0</EPHEMERIS_TYPE><CLASSIFICATION_TYPE>U</CLASSIFICATION_TYPE><NORAD_CAT_ID>64523</NORAD_CAT_ID><ELEMENT_SET_NO>999</ELEMENT_SET_NO><REV_AT_EPOCH>2498</REV_AT_EPOCH><BSTAR>.71098707E-3</BSTAR><MEAN_MOTION_DOT>.5234E-4</MEAN_MOTION_DOT><MEAN_MOTION_DDOT>0</MEAN_MOTION_DDOT></tleParameters></data></segment></body></omm>
<omm id="CCSDS_OMM_VERS" version="2.0">
<header><CREATION_DATE/><ORIGINATOR/></header><body><segment><metadata><OBJECT_NAME>KUIPER-00064</OBJECT_NAME><OBJECT_ID>2025-134AA</OBJECT_ID><CENTER_NAME>EARTH</CENTER_NAME><REF_FRAME>TEME</REF_FRAME><TIME_SYSTEM>UTC</TIME_SYSTEM><MEAN_ELEMENT_THEORY>SGP4</MEAN_ELEMENT_THEORY></metadata><data><meanElements><EPOCH>2025-11-28T20:00:03.000384</EPOCH><MEAN_MOTION>14.79924772</MEAN_MOTION><ECCENTRICITY>.0008057</ECCENTRICITY><INCLINATION>51.9034</INCLINATION><RA_OF_ASC_NODE>321.4814</RA_OF_ASC_NODE><ARG_OF_PERICENTER>21.1051</ARG_OF_PERICENTER><MEAN_ANOMALY>128.0682</MEAN_ANOMALY></meanElements><tleParameters><EPHEMERIS_TYPE>0</EPHEMERIS_TYPE><CLASSIFICATION_TYPE>U</CLASSIFICATION_TYPE><NORAD_CAT_ID>64524</NORAD_CAT_ID><ELEMENT_SET_NO>999</ELEMENT_SET_NO><REV_AT_EPOCH>436</REV_AT_EPOCH><BSTAR>.4683E-2</BSTAR><MEAN_MOTION_DOT>.35677E-3</MEAN_MOTION_DOT><MEAN_MOTION_DDOT>0</MEAN_MOTION_DDOT></tleParameters></data></segment></body></omm>
<omm id="CCSDS_OMM_VERS" version="2.0">
<header><CREATION_DATE/><ORIGINATOR/></header><body><segment><metadata><OBJECT_NAME>KUIPER-00065</OBJECT_NAME><OBJECT_ID>2025-134AB</OBJECT_ID><CENTER_NAME>EARTH</CENTER_NAME><REF_FRAME>TEME</REF_FRAME><TIME_SYSTEM>UTC</TIME_SYSTEM><MEAN_ELEMENT_THEORY>SGP4</MEAN_ELEMENT_THEORY></metadata><data><meanElements><EPOCH>2025-11-28T09:12:03.498912</EPOCH><MEAN_MOTION>14.76792261</MEAN_MOTION><ECCENTRICITY>.00105064</ECCENTRICITY><INCLINATION>51.9026</INCLINATION><RA_OF_ASC_NODE>328.5099</RA_OF_ASC_NODE><ARG_OF_PERICENTER>307.1463</ARG_OF_PERICENTER><MEAN_ANOMALY>52.8538</MEAN_ANOMALY></meanElements><tleParameters><EPHEMERIS_TYPE>0</EPHEMERIS_TYPE><CLASSIFICATION_TYPE>U</CLASSIFICATION_TYPE><NORAD_CAT_ID>64525</NORAD_CAT_ID><ELEMENT_SET_NO>999</ELEMENT_SET_NO><REV_AT_EPOCH>2495</REV_AT_EPOCH><BSTAR>.75465846E-3</BSTAR><MEAN_MOTION_DOT>.5132E-4</MEAN_MOTION_DOT><MEAN_MOTION_DDOT>0</MEAN_MOTION_DDOT></tleParameters></data></segment></body></omm>
<omm id="CCSDS_OMM_VERS" version="2.0">
<header><CREATION_DATE/><ORIGINATOR/></header><body><segment><metadata><OBJECT_NAME>KUIPER-00066</OBJECT_NAME><OBJECT_ID>2025-134AC</OBJECT_ID><CENTER_NAME>EARTH</CENTER_NAME><REF_FRAME>TEME</REF_FRAME><TIME_SYSTEM>UTC</TIME_SYSTEM><MEAN_ELEMENT_THEORY>SGP4</MEAN_ELEMENT_THEORY></metadata><data><meanElements><EPOCH>2025-11-28T07:26:03.600096</EPOCH><MEAN_MOTION>15.20103303</MEAN_MOTION><ECCENTRICITY>.0001661</ECCENTRICITY><INCLINATION>51.8871</INCLINATION><RA_OF_ASC_NODE>302.6492</RA_OF_ASC_NODE><ARG_OF_PERICENTER>33.0536</ARG_OF_PERICENTER><MEAN_ANOMALY>327.0547</MEAN_ANOMALY></meanElements><tleParameters><EPHEMERIS_TYPE>0</EPHEMERIS_TYPE><CLASSIFICATION_TYPE>U</CLASSIFICATION_TYPE><NORAD_CAT_ID>64526</NORAD_CAT_ID><ELEMENT_SET_NO>999</ELEMENT_SET_NO><REV_AT_EPOCH>2532</REV_AT_EPOCH><BSTAR>.9749637E-3</BSTAR><MEAN_MOTION_DOT>.21082E-3</MEAN_MOTION_DOT><MEAN_MOTION_DDOT>0</MEAN_MOTION_DDOT></tleParameters></data></segment></body></omm>
<omm id="CCSDS_OMM_VERS" version="2.0">
<header><CREATION_DATE/><ORIGINATOR/></header><body><segment><metadata><OBJECT_NAME>KUIPER-00069</OBJECT_NAME><OBJECT_ID>2025-151A</OBJECT_ID><CENTER_NAME>EARTH</CENTER_NAME><REF_FRAME>TEME</REF_FRAME><TIME_SYSTEM>UTC</TIME_SYSTEM><MEAN_ELEMENT_THEORY>SGP4</MEAN_ELEMENT_THEORY></metadata><data><meanElements><EPOCH>2025-11-28T19:47:12.264864</EPOCH><MEAN_MOTION>14.79888677</MEAN_MOTION><ECCENTRICITY>.000638</ECCENTRICITY><INCLINATION>51.9025</INCLINATION><RA_OF_ASC_NODE>6.6349</RA_OF_ASC_NODE><ARG_OF_PERICENTER>311.4392</ARG_OF_PERICENTER><MEAN_ANOMALY>48.6021</MEAN_ANOMALY></meanElements><tleParameters><EPHEMERIS_TYPE>0</EPHEMERIS_TYPE><CLASSIFICATION_TYPE>U</CLASSIFICATION_TYPE><NORAD_CAT_ID>64816</NORAD_CAT_ID><ELEMENT_SET_NO>999</ELEMENT_SET_NO><REV_AT_EPOCH>2182</REV_AT_EPOCH><BSTAR>.54727E-3</BSTAR><MEAN_MOTION_DOT>.3949E-4</MEAN_MOTION_DOT><MEAN_MOTION_DDOT>0</MEAN_MOTION_DDOT></tleParameters></data></segment></body></omm>
<omm id="CCSDS_OMM_VERS" version="2.0">
<header><CREATION_DATE/><ORIGINATOR/></header><body><segment><metadata><OBJECT_NAME>KUIPER-00070</OBJECT_NAME><OBJECT_ID>2025-151B</OBJECT_ID><CENTER_NAME>EARTH</CENTER_NAME><REF_FRAME>TEME</REF_FRAME><TIME_SYSTEM>UTC</TIME_SYSTEM><MEAN_ELEMENT_THEORY>SGP4</MEAN_ELEMENT_THEORY></metadata><data><meanElements><EPOCH>2025-11-28T10:13:29.420544</EPOCH><MEAN_MOTION>14.79886232</MEAN_MOTION><ECCENTRICITY>.00099237</ECCENTRICITY><INCLINATION>51.9014</INCLINATION><RA_OF_ASC_NODE>33.3512</RA_OF_ASC_NODE><ARG_OF_PERICENTER>276.0177</ARG_OF_PERICENTER><MEAN_ANOMALY>83.9655</MEAN_ANOMALY></meanElements><tleParameters><EPHEMERIS_TYPE>0</EPHEMERIS_TYPE><CLASSIFICATION_TYPE>U</CLASSIFICATION_TYPE><NORAD_CAT_ID>64817</NORAD_CAT_ID><ELEMENT_SET_NO>999</ELEMENT_SET_NO><REV_AT_EPOCH>2142</REV_AT_EPOCH><BSTAR>-.45129331E-3</BSTAR><MEAN_MOTION_DOT>-.3661E-4</MEAN_MOTION_DOT><MEAN_MOTION_DDOT>0</MEAN_MOTION_DDOT></tleParameters></data></segment></body></omm>

</ndm>
